[{"OBJECT_NAME":"OBJECT B","OBJECT_ID":"2024-203B","EPOCH":"2026-03-09T23:52:52.928256","MEAN_MOTION":15.27506959,"ECCENTRICITY":0.00103904,"INCLINATION":97.4268,"RA_OF_ASC_NODE":139.5887,"ARG_OF_PERICENTER":321.1475,"MEAN_ANOMALY":38.9016,"EPHEMERIS_TYPE":0,"CLASSIFICATION_TYPE":"U","NORAD_CAT_ID":61870,"ELEMENT_SET_NO":999,"REV_AT_EPOCH":7381,"BSTAR":0.00063263842,"MEAN_MOTION_DOT":0.00016997,"MEAN_MOTION_DDOT":0},{"OBJECT_NAME":"STARLINK-35832","OBJECT_ID":"2025-263L","EPOCH":"2026-03-09T02:59:43.956384","MEAN_MOTION":15.27574085,"ECCENTRICITY":0.00016887,"INCLINATION":43.0046,"RA_OF_ASC_NODE":353.7896,"ARG_OF_PERICENTER":256.5212,"MEAN_ANOMALY":103.5452,"EPHEMERIS_TYPE":0,"CLASSIFICATION_TYPE":"U","NORAD_CAT_ID":66495,"ELEMENT_SET_NO":999,"REV_AT_EPOCH":1881,"BSTAR":0.0016967746,"MEAN_MOTION_DOT":0.00046717,"MEAN_MOTION_DDOT":0}]
